[
    {
        "Altitude(m)": 715016.7358068731,
        "Argument of Periapsis(deg)": 0.011390121186627068,
        "Eccentricity": 0.0,
        "Inclination(deg)": 45.0,
        "Latitude(deg)": -38.21609353731904,
        "Longitude(deg)": 15.776392218445665,
        "Mean Anomaly(deg)": -119.37588335251915,
        "RAAN(deg)": 244.98924805854182,
        "Satellite Name": "Constellation 1 1092",
        "Satellite Number": 1092,
        "Semi-Major Axis(m)": 7083131.272910544,
        "Time(s)": 190
    },
    {
        "Altitude(m)": 715027.7338329442,
        "Argument of Periapsis(deg)": 0.011450069192872472,
        "Eccentricity": 0.0,
        "Inclination(deg)": 45.0,
        "Latitude(deg)": -38.242782581087944,
        "Longitude(deg)": 15.841392775421848,
        "Mean Anomaly(deg)": -119.31518221226919,
        "RAAN(deg)": 244.98919146937624,
        "Satellite Name": "Constellation 1 1092",
        "Satellite Number": 1092,
        "Semi-Major Axis(m)": 7083131.272910544,
        "Time(s)": 191
    },
    {
        "Altitude(m)": 715038.7159200527,
        "Argument of Periapsis(deg)": 0.01151001719911788,
        "Eccentricity": 0.0,
        "Inclination(deg)": 45.0,
        "Latitude(deg)": -38.26943075101896,
        "Longitude(deg)": 15.90644370258172,
        "Mean Anomaly(deg)": -119.25448107201932,
        "RAAN(deg)": 244.98913488021068,
        "Satellite Name": "Constellation 1 1092",
        "Satellite Number": 1092,
        "Semi-Major Axis(m)": 7083131.272910544,
        "Time(s)": 192
    },
    {
        "Altitude(m)": 715049.6820283203,
        "Argument of Periapsis(deg)": 0.011569965205363285,
        "Eccentricity": 0.0,
        "Inclination(deg)": 45.0,
        "Latitude(deg)": -38.29603797928853,
        "Longitude(deg)": 15.971544839666125,
        "Mean Anomaly(deg)": -119.19377993176948,
        "RAAN(deg)": 244.98907829104513,
        "Satellite Name": "Constellation 1 1092",
        "Satellite Number": 1092,
        "Semi-Major Axis(m)": 7083131.272910544,
        "Time(s)": 193
    },
    {
        "Altitude(m)": 715060.6321179224,
        "Argument of Periapsis(deg)": 0.01162991321160869,
        "Eccentricity": 0.0,
        "Inclination(deg)": 45.0,
        "Latitude(deg)": -38.322604198043415,
        "Longitude(deg)": 16.0366965303544,
        "Mean Anomaly(deg)": -119.13307879151954,
        "RAAN(deg)": 244.98902170187955,
        "Satellite Name": "Constellation 1 1092",
        "Satellite Number": 1092,
        "Semi-Major Axis(m)": 7083131.272910544,
        "Time(s)": 194
    },
    {
        "Altitude(m)": 715071.5661490936,
        "Argument of Periapsis(deg)": 0.011689861217854095,
        "Eccentricity": 0.0,
        "Inclination(deg)": 45.0,
        "Latitude(deg)": -38.3491293394026,
        "Longitude(deg)": 16.101898613680376,
        "Mean Anomaly(deg)": -119.07237765126965,
        "RAAN(deg)": 244.98896511271397,
        "Satellite Name": "Constellation 1 1092",
        "Satellite Number": 1092,
        "Semi-Major Axis(m)": 7083131.272910544,
        "Time(s)": 195
    },
    {
        "Altitude(m)": 715082.4840821098,
        "Argument of Periapsis(deg)": 0.0117498092240995,
        "Eccentricity": 0.0,
        "Inclination(deg)": 45.0,
        "Latitude(deg)": -38.37561333545696,
        "Longitude(deg)": 16.167151096419843,
        "Mean Anomaly(deg)": -119.01167651101979,
        "RAAN(deg)": 244.9889085235484,
        "Satellite Name": "Constellation 1 1092",
        "Satellite Number": 1092,
        "Semi-Major Axis(m)": 7083131.272910544,
        "Time(s)": 196
    },
    {
        "Altitude(m)": 715093.3858773226,
        "Argument of Periapsis(deg)": 0.011809757230344905,
        "Eccentricity": 0.0,
        "Inclination(deg)": 45.0,
        "Latitude(deg)": -38.40205611826976,
        "Longitude(deg)": 16.23245398499152,
        "Mean Anomaly(deg)": -118.95097537076984,
        "RAAN(deg)": 244.98885193438284,
        "Satellite Name": "Constellation 1 1092",
        "Satellite Number": 1092,
        "Semi-Major Axis(m)": 7083131.272910544,
        "Time(s)": 197
    },
    {
        "Altitude(m)": 715104.2714951228,
        "Argument of Periapsis(deg)": 0.011869705236590313,
        "Eccentricity": 0.0,
        "Inclination(deg)": 45.0,
        "Latitude(deg)": -38.428457619876966,
        "Longitude(deg)": 16.29780728545553,
        "Mean Anomaly(deg)": -118.89027423051999,
        "RAAN(deg)": 244.98879534521726,
        "Satellite Name": "Constellation 1 1092",
        "Satellite Number": 1092,
        "Semi-Major Axis(m)": 7083131.272910544,
        "Time(s)": 198
    },
    {
        "Altitude(m)": 715115.1408959597,
        "Argument of Periapsis(deg)": 0.011929653242835719,
        "Eccentricity": 0.0,
        "Inclination(deg)": 45.0,
        "Latitude(deg)": -38.45481777228821,
        "Longitude(deg)": 16.363211003512657,
        "Mean Anomaly(deg)": -118.82957309027006,
        "RAAN(deg)": 244.9887387560517,
        "Satellite Name": "Constellation 1 1092",
        "Satellite Number": 1092,
        "Semi-Major Axis(m)": 7083131.272910544,
        "Time(s)": 199
    }
]